{
  "norad_id": 56358,
  "name": "STARLINK-5482",
  "history": [
    {
      "epoch": "2026-03-28T20:00:01.999872Z",
      "apogee_km": 551.0841467916898,
      "perigee_km": 548.1204599177145,
      "latitude_deg": 27.875185401394692,
      "longitude_deg": 146.80731064697704,
      "height_km": 552.7917141900131,
      "semi_major_axis_km": 6927.739303354701,
      "eccentricity": 0.0002139,
      "inclination_deg": 97.6037,
      "raan_deg": 89.0371,
      "arg_perigee_deg": 75.6995,
      "mean_anomaly_deg": 76.1768,
      "mean_motion_rev_day": 15.05620285
    },
    {
      "epoch": "2026-03-29T00:00:01.999296Z",
      "apogee_km": 551.0353158863581,
      "perigee_km": 548.0065438394231,
      "latitude_deg": -25.3534786940407,
      "longitude_deg": -93.61258236452598,
      "height_km": 559.3637243526648,
      "semi_major_axis_km": 6927.65792986289,
      "eccentricity": 0.0002186,
      "inclination_deg": 97.6034,
      "raan_deg": 89.2015,
      "arg_perigee_deg": 74.9212,
      "mean_anomaly_deg": 259.7625,
      "mean_motion_rev_day": 15.05646813
    },
    {
      "epoch": "2026-03-30T00:02:17.674944Z",
      "apogee_km": 550.9647795655656,
      "perigee_km": 548.0773316879804,
      "latitude_deg": -4.013378079233992e-05,
      "longitude_deg": -97.78483626619482,
      "height_km": 552.2881852818564,
      "semi_major_axis_km": 6927.658055626773,
      "eccentricity": 0.0002084,
      "inclination_deg": 97.6035,
      "raan_deg": 90.1884,
      "arg_perigee_deg": 78.2244,
      "mean_anomaly_deg": 281.9216,
      "mean_motion_rev_day": 15.05646772
    },
    {
      "epoch": "2026-03-30T00:02:17.675808Z",
      "apogee_km": 550.9645024592437,
      "perigee_km": 548.0776087943023,
      "latitude_deg": -3.565882746416733e-05,
      "longitude_deg": -97.78484047014616,
      "height_km": 552.2882418450146,
      "semi_major_axis_km": 6927.658055626773,
      "eccentricity": 0.00020836,
      "inclination_deg": 97.6035,
      "raan_deg": 90.1884,
      "arg_perigee_deg": 78.2244,
      "mean_anomaly_deg": 281.9216,
      "mean_motion_rev_day": 15.05646772
    },
    {
      "epoch": "2026-03-30T12:47:53.472192Z",
      "apogee_km": 550.9636551311341,
      "perigee_km": 548.0519660172504,
      "latitude_deg": 4.905554891863379e-05,
      "longitude_deg": 70.81606504134895,
      "height_km": 552.2765201909807,
      "semi_major_axis_km": 6927.644810574192,
      "eccentricity": 0.00021015,
      "inclination_deg": 97.6034,
      "raan_deg": 90.7125,
      "arg_perigee_deg": 78.3888,
      "mean_anomaly_deg": 281.7575,
      "mean_motion_rev_day": 15.0565109
    },
    {
      "epoch": "2026-03-30T17:34:59.465280Z",
      "apogee_km": 550.9758398704971,
      "perigee_km": 548.0399039737758,
      "latitude_deg": 3.503013073280376e-05,
      "longitude_deg": -0.9589169545511295,
      "height_km": 552.2793135268092,
      "semi_major_axis_km": 6927.644871922136,
      "eccentricity": 0.0002119,
      "inclination_deg": 97.6033,
      "raan_deg": 90.909,
      "arg_perigee_deg": 78.5959,
      "mean_anomaly_deg": 281.5506,
      "mean_motion_rev_day": 15.0565107
    },
    {
      "epoch": "2026-03-31T17:30:29.770272Z",
      "apogee_km": 550.9928325608016,
      "perigee_km": 548.0333404438488,
      "latitude_deg": -1.1205838924893157e-05,
      "longitude_deg": 0.16465140124492064,
      "height_km": 552.2692442356224,
      "semi_major_axis_km": 6927.650086502325,
      "eccentricity": 0.0002136,
      "inclination_deg": 97.603,
      "raan_deg": 91.8914,
      "arg_perigee_deg": 78.0842,
      "mean_anomaly_deg": 282.0624,
      "mean_motion_rev_day": 15.0564937
    },
    {
      "epoch": "2026-04-01T17:25:59.442816Z",
      "apogee_km": 550.9646200351963,
      "perigee_km": 548.0425412382838,
      "latitude_deg": 2.7967296894919336e-05,
      "longitude_deg": 1.2908507760239423,
      "height_km": 552.2533570905025,
      "semi_major_axis_km": 6927.64058063674,
      "eccentricity": 0.0002109,
      "inclination_deg": 97.6027,
      "raan_deg": 92.8738,
      "arg_perigee_deg": 77.671,
      "mean_anomaly_deg": 282.4753,
      "mean_motion_rev_day": 15.05652469
    },
    {
      "epoch": "2026-04-02T17:21:29.551680Z",
      "apogee_km": 550.9655680540172,
      "perigee_km": 548.0711936359003,
      "latitude_deg": 3.3931587873262356e-05,
      "longitude_deg": 2.4153311485381765,
      "height_km": 552.2761537376649,
      "semi_major_axis_km": 6927.655380844958,
      "eccentricity": 0.0002089,
      "inclination_deg": 97.6029,
      "raan_deg": 93.8563,
      "arg_perigee_deg": 77.8743,
      "mean_anomaly_deg": 282.2718,
      "mean_motion_rev_day": 15.05647644
    },
    {
      "epoch": "2026-04-02T22:08:35.552544Z",
      "apogee_km": 550.9730811529535,
      "perigee_km": 548.060833982272,
      "latitude_deg": -3.333985465302108e-05,
      "longitude_deg": -69.35947635905188,
      "height_km": 552.2793199251629,
      "semi_major_axis_km": 6927.653957567612,
      "eccentricity": 0.00021019,
      "inclination_deg": 97.603,
      "raan_deg": 94.053,
      "arg_perigee_deg": 78.1351,
      "mean_anomaly_deg": 282.0111,
      "mean_motion_rev_day": 15.05648108
    },
    {
      "epoch": "2026-04-03T17:16:59.900736Z",
      "apogee_km": 550.9345488110484,
      "perigee_km": 548.1205314748422,
      "latitude_deg": -2.4790747514847606e-05,
      "longitude_deg": 3.5398158648910742,
      "height_km": 552.39920345494,
      "semi_major_axis_km": 6927.664540142945,
      "eccentricity": 0.0002031,
      "inclination_deg": 97.6029,
      "raan_deg": 94.8398,
      "arg_perigee_deg": 82.2316,
      "mean_anomaly_deg": 277.9141,
      "mean_motion_rev_day": 15.05644658
    },
    {
      "epoch": "2026-04-04T12:25:23.637216Z",
      "apogee_km": 550.9098183443666,
      "perigee_km": 548.1272562212607,
      "latitude_deg": 2.5934067223962107e-05,
      "longitude_deg": 76.44095775546853,
      "height_km": 552.3953234484939,
      "semi_major_axis_km": 6927.655537282813,
      "eccentricity": 0.00020083,
      "inclination_deg": 97.6031,
      "raan_deg": 95.6259,
      "arg_perigee_deg": 82.3549,
      "mean_anomaly_deg": 277.7906,
      "mean_motion_rev_day": 15.05647593
    },
    {
      "epoch": "2026-04-05T13:56:35.928960Z",
      "apogee_km": 550.9047260778625,
      "perigee_km": 548.1572129611504,
      "latitude_deg": 2.8444447997437633e-05,
      "longitude_deg": 53.63976783649462,
      "height_km": 552.4035605144836,
      "semi_major_axis_km": 6927.667969519506,
      "eccentricity": 0.0001983,
      "inclination_deg": 97.6031,
      "raan_deg": 96.674,
      "arg_perigee_deg": 82.0785,
      "mean_anomaly_deg": 278.0667,
      "mean_motion_rev_day": 15.0564354
    },
    {
      "epoch": "2026-04-05T13:56:35.929824Z",
      "apogee_km": 550.9050031845818,
      "perigee_km": 548.156935854432,
      "latitude_deg": 2.391646432800815e-05,
      "longitude_deg": 53.6397648277389,
      "height_km": 552.4035223169014,
      "semi_major_axis_km": 6927.667969519506,
      "eccentricity": 0.00019834,
      "inclination_deg": 97.6031,
      "raan_deg": 96.674,
      "arg_perigee_deg": 82.0785,
      "mean_anomaly_deg": 278.0667,
      "mean_motion_rev_day": 15.0564354
    },
    {
      "epoch": "2026-04-05T23:30:47.750976Z",
      "apogee_km": 550.8516879713661,
      "perigee_km": 548.1981163563614,
      "latitude_deg": 9.162904896765173e-06,
      "longitude_deg": -89.90941262202732,
      "height_km": 552.3992374246319,
      "semi_major_axis_km": 6927.6619021638635,
      "eccentricity": 0.00019152,
      "inclination_deg": 97.6031,
      "raan_deg": 97.0671,
      "arg_perigee_deg": 81.8668,
      "mean_anomaly_deg": 278.2776,
      "mean_motion_rev_day": 15.05645518
    },
    {
      "epoch": "2026-04-07T12:11:53.854944Z",
      "apogee_km": 550.8232957361279,
      "perigee_km": 548.2254227264157,
      "latitude_deg": -7.507126239887504e-05,
      "longitude_deg": 79.81536075098111,
      "height_km": 552.4204418904392,
      "semi_major_axis_km": 6927.6613592312715,
      "eccentricity": 0.0001875,
      "inclination_deg": 97.6031,
      "raan_deg": 98.5739,
      "arg_perigee_deg": 82.6559,
      "mean_anomaly_deg": 277.488,
      "mean_motion_rev_day": 15.05645695
    },
    {
      "epoch": "2026-04-07T12:11:53.855808Z",
      "apogee_km": 550.8235728425816,
      "perigee_km": 548.225145619962,
      "latitude_deg": -7.960542897620956e-05,
      "longitude_deg": 79.81535774304612,
      "height_km": 552.4204064618001,
      "semi_major_axis_km": 6927.6613592312715,
      "eccentricity": 0.00018754,
      "inclination_deg": 97.6031,
      "raan_deg": 98.5739,
      "arg_perigee_deg": 82.6559,
      "mean_anomaly_deg": 277.488,
      "mean_motion_rev_day": 15.05645695
    },
    {
      "epoch": "2026-04-08T13:43:06.233952Z",
      "apogee_km": 550.8155606440869,
      "perigee_km": 548.243041039932,
      "latitude_deg": -1.2909220481861255e-06,
      "longitude_deg": 57.01399506736456,
      "height_km": 552.4436376022915,
      "semi_major_axis_km": 6927.666300842009,
      "eccentricity": 0.00018567,
      "inclination_deg": 97.6031,
      "raan_deg": 99.6222,
      "arg_perigee_deg": 83.4016,
      "mean_anomaly_deg": 276.7422,
      "mean_motion_rev_day": 15.05644084
    },
    {
      "epoch": "2026-04-09T12:02:54.070080Z",
      "apogee_km": 550.7182218444568,
      "perigee_km": 548.3226379052066,
      "latitude_deg": 5.74577264486268e-05,
      "longitude_deg": 82.06450864140588,
      "height_km": 552.4422040538713,
      "semi_major_axis_km": 6927.657429874832,
      "eccentricity": 0.0001729,
      "inclination_deg": 97.6027,
      "raan_deg": 100.5391,
      "arg_perigee_deg": 83.2592,
      "mean_anomaly_deg": 276.8832,
      "mean_motion_rev_day": 15.05646976
    },
    {
      "epoch": "2026-04-10T05:35:35.995200Z",
      "apogee_km": 550.6320951017105,
      "perigee_km": 548.401390596513,
      "latitude_deg": -5.911319739250793e-05,
      "longitude_deg": 178.88968741895016,
      "height_km": 552.4909644898601,
      "semi_major_axis_km": 6927.653742849111,
      "eccentricity": 0.000161,
      "inclination_deg": 97.6027,
      "raan_deg": 101.2595,
      "arg_perigee_deg": 85.4557,
      "mean_anomaly_deg": 274.6853,
      "mean_motion_rev_day": 15.05648178
    },
    {
      "epoch": "2026-04-11T18:16:41.918592Z",
      "apogee_km": 550.664711182555,
      "perigee_km": 548.3564190138641,
      "latitude_deg": -1.567434617022632e-05,
      "longitude_deg": -11.384700703590056,
      "height_km": 552.495107962481,
      "semi_major_axis_km": 6927.647565098209,
      "eccentricity": 0.0001666,
      "inclination_deg": 97.6029,
      "raan_deg": 102.7664,
      "arg_perigee_deg": 86.1277,
      "mean_anomaly_deg": 274.014,
      "mean_motion_rev_day": 15.05650192
    },
    {
      "epoch": "2026-04-12T18:12:11.695680Z",
      "apogee_km": 550.6245426569094,
      "perigee_km": 548.3823425512564,
      "latitude_deg": 8.610369927684824e-06,
      "longitude_deg": -10.258538178384836,
      "height_km": 552.5113082687449,
      "semi_major_axis_km": 6927.640442604083,
      "eccentricity": 0.00016183,
      "inclination_deg": 97.6029,
      "raan_deg": 103.7492,
      "arg_perigee_deg": 87.2032,
      "mean_anomaly_deg": 272.938,
      "mean_motion_rev_day": 15.05652514
    }
  ]
}